ISS (NAUKA)             
1 49044U 21066A   26189.15353387  .00005161  00000+0  10196-3 0  9999
2 49044  51.6304 196.3226 0006696 270.4034  89.6187 15.48940380610028
STARLINK-3100           
1 49144U 21082Q   26188.86939029  .00000294  00000+0  32457-4 0  9995
2 49144  70.0001 351.4309 0003123 269.5202  90.5600 14.98327907263980
CUTE                    
1 49263U 21088D   26188.23006743  .00505644  12215-3  75030-3 0  9999
2 49263  97.4041 289.5988 0001469 300.4812  59.6324 16.04923388265756
2021-091B               
1 49316U 21091B   26189.21131167 -.00000342  00000+0 -13181-4 0  9992
2 49316  97.4480  16.4669 0012571 334.5242  25.5372 15.18653659262179
SDGSAT 1                
1 49387U 21100A   26189.17642106  .00002591  00000+0  12607-3 0  9993
2 49387  97.2621 235.3238 0009101 187.0683 173.0425 15.19217664259101
TEIKYOSAT-4 (OORURI)    
1 49396U 21102B   26188.66970115  .00001466  00000+0  94970-4 0  9996
2 49396  97.3663 217.3567 0011016 216.0060 144.0429 15.09581259255812
Z-SAT                   
1 49399U 21102E   26189.15533572  .00003242  00000+0  16019-3 0  9997
2 49399  97.3320 223.8422 0016899 168.0692 192.0946 15.18428721256629
HIBARI                  
1 49400U 21102F   26189.10405209  .00005987  00000+0  19476-3 0  9998
2 49400  97.3228 234.7729 0013161 122.9338 237.3172 15.32171775257394
KOSEN-1                 
1 49402U 21102H   26188.06319665  .00006147  00000+0  23304-3 0  9998
2 49402  97.3175 229.8359 0015082 133.3577 226.8921 15.27132913257059
GLOBAL-14               
1 49469U 21106A   26189.01286226  .00015212  00000+0  25359-3 0  9992
2 49469  42.0026 167.2212 0016361 175.0195 185.0814 15.51567112261363
GAOFEN-3 02             
1 49495U 21109A   26189.13978138 -.00000013  00000+0  93047-5 0  9992
2 49495  98.4094 196.9391 0001507 306.7879  53.3172 14.42219614243338
GLOBAL-12               
1 49772U 21115BA  26188.90789273  .00022782  00000+0  34020-3 0  9991
2 49772  53.1956 304.8140 0002642  69.2513 290.8781 15.54975673259126
GLOBAL-13               
1 49773U 21115BB  26188.92993105  .00012139  00000+0  24550-3 0  9997
2 49773  53.1978 315.9233 0001470 150.0694 210.0399 15.46904560258973
GLOBAL-17               
1 49949U 21120A   26188.67069821  .00020546  00000+0  31893-3 0  9998
2 49949  41.9951 287.1403 0013973  33.0698 327.1018 15.53418345258087
GLOBAL-16               
1 49950U 21120B   26189.16305527  .00017957  00000+0  30258-3 0  9997
2 49950  41.9953 288.3335 0012134  26.0602 334.0851 15.51233327258101
XW-3 (CAS-9)            
1 50466U 21131B   26189.22731985  .00000282  00000+0  10082-3 0  9997
2 50466  98.4981 281.5039 0004957  48.1809 311.9803 14.41377830238146
ION SCV-004             
1 50993U 22002K   26189.09033122  .00003083  00000+0  10653-3 0  9999
2 50993  97.2821 246.3573 0005552 280.3455  79.7160 15.30660920248490
ETV-A1                  
1 51060U 22002CE  26189.18410500  .00006816  00000+0  16662-3 0  9997
2 51060  97.2866 255.4336 0003474 260.5849  99.5005 15.41130321249073
BRO-5                   
1 51061U 22002CF  26189.19567755  .00019957  00000+0  37540-3 0  9992
2 51061  97.2983 263.0662 0004649 230.4932 129.5908 15.48583289249501
LUDI TANCE 1-01A (L-SA*)
1 51284U 22007A   26189.15594109  .00000431  00000+0  52311-4 0  9994
2 51284  97.8102 196.2779 0001614  90.2407 269.8995 14.88413660241594
LUDI TANCE 1-01B (L-SA*)
1 51822U 22018A   26189.18953441 -.00000006  00000+0  52588-5 0  9991
2 51822  97.8107 196.3088 0001620  90.8220 269.3183 14.88407763236839
2022-023F               
1 51951U 22023F   26189.15996631  .00004644  00000+0  19143-3 0  9994
2 51951  63.4441 202.1844 0132480 341.6826  17.9538 15.17889847240898
MERIDIAN 10             
1 52145U 22030A   26188.90563944  .00000204  00000+0  00000+0 0  9993
2 52145  62.6802 138.5531 6789607 272.8449  17.6265  2.00610630 31445
OMNI-L1                 
1 52157U 22033A   26188.76084227  .00001498  00000+0  19149-3 0  9999
2 52157  97.8387 267.5390 0004683 201.7692 158.3324 14.82828478230502
ENMAP                   
1 52159U 22033C   26189.19566385  .00000378  00000+0  63742-4 0  9994
2 52159  97.9786 271.1473 0001343  77.7565 282.3794 14.74938122229754
ARCSAT-1                
1 52161U 22033E   26188.92618334  .00010189  00000+0  15824-3 0  9997
2 52161  97.2747 281.5143 0006352 117.1855 243.0047 15.54137142238928
GLOBAL-18               
1 52196U 22034B   26187.89934840  .00013792  00000+0  27699-3 0  9990
2 52196  52.9802 162.3799 0004110   1.2196 358.8819 15.46973117240016
