OBJECT_NAME,OBJECT_ID,EPOCH,MEAN_MOTION,ECCENTRICITY,INCLINATION,RA_OF_ASC_NODE,ARG_OF_PERICENTER,MEAN_ANOMALY,EPHEMERIS_TYPE,CLASSIFICATION_TYPE,NORAD_CAT_ID,ELEMENT_SET_NO,REV_AT_EPOCH,BSTAR,MEAN_MOTION_DOT,MEAN_MOTION_DDOT
ISS (NAUKA),2021-066A,2026-07-08T03:41:05.326368,15.48940380,.0006696,51.6304,196.3226,270.4034,89.6187,0,U,49044,999,61002,.10196E-3,.5161E-4,0
STARLINK-3100,2021-082Q,2026-07-07T20:51:55.321056,14.98327907,.0003123,70.0001,351.4309,269.5202,90.5600,0,U,49144,999,26398,.32457E-4,.294E-5,0
CUTE,2021-088D,2026-07-07T05:31:17.825952,16.04923388,.00014696,97.4041,289.5988,300.4812,59.6324,0,U,49263,999,26575,.75030128E-3,.505644E-2,.12214957E-3
2021-091B,2021-091B,2026-07-08T05:04:17.328288,15.18653659,.0012571,97.4480,16.4669,334.5242,25.5372,0,U,49316,999,26217,-.13181E-4,-.342E-5,0
SDGSAT 1,2021-100A,2026-07-08T04:14:02.779584,15.19217664,.0009101,97.2621,235.3238,187.0683,173.0425,0,U,49387,999,25910,.12607E-3,.2591E-4,0
TEIKYOSAT-4 (OORURI),2021-102B,2026-07-07T16:04:22.179360,15.09581259,.0011016,97.3663,217.3567,216.0060,144.0429,0,U,49396,999,25581,.9497E-4,.1466E-4,0
Z-SAT,2021-102E,2026-07-08T03:43:41.006208,15.18428721,.0016899,97.3320,223.8422,168.0692,192.0946,0,U,49399,999,25662,.16019E-3,.3242E-4,0
HIBARI,2021-102F,2026-07-08T02:29:50.100576,15.32171775,.0013161,97.3228,234.7729,122.9338,237.3172,0,U,49400,999,25739,.19476E-3,.5987E-4,0
KOSEN-1,2021-102H,2026-07-07T01:31:00.190560,15.27132913,.00150823,97.3175,229.8359,133.3577,226.8921,0,U,49402,999,25705,.23303826E-3,.6147E-4,0
GLOBAL-14,2021-106A,2026-07-08T00:18:31.299264,15.51567112,.0016361,42.0026,167.2212,175.0195,185.0814,0,U,49469,999,26136,.25359E-3,.15212E-3,0
GAOFEN-3 02,2021-109A,2026-07-08T03:21:17.111232,14.42219614,.0001507,98.4094,196.9391,306.7879,53.3172,0,U,49495,999,24333,.93047E-5,-.13E-6,0
GLOBAL-12,2021-115BA,2026-07-07T21:47:21.931872,15.54975673,.0002642,53.1956,304.8140,69.2513,290.8781,0,U,49772,999,25912,.3402E-3,.22782E-3,0
GLOBAL-13,2021-115BB,2026-07-07T22:19:06.042720,15.46904560,.000147,53.1978,315.9233,150.0694,210.0399,0,U,49773,999,25897,.2455E-3,.12139E-3,0
GLOBAL-17,2021-120A,2026-07-07T16:05:48.325344,15.53418345,.0013973,41.9951,287.1403,33.0698,327.1018,0,U,49949,999,25808,.31893E-3,.20546E-3,0
GLOBAL-16,2021-120B,2026-07-08T03:54:47.975328,15.51233327,.0012134,41.9953,288.3335,26.0602,334.0851,0,U,49950,999,25810,.30258E-3,.17957E-3,0
XW-3 (CAS-9),2021-131B,2026-07-08T05:27:20.435040,14.41377830,.0004957,98.4981,281.5039,48.1809,311.9803,0,U,50466,999,23814,.10082E-3,.282E-5,0
ION SCV-004,2022-002K,2026-07-08T02:10:04.617408,15.30660920,.0005552,97.2821,246.3573,280.3455,79.7160,0,U,50993,999,24849,.10653E-3,.3083E-4,0
ETV-A1,2022-002CE,2026-07-08T04:25:06.672000,15.41130321,.0003474,97.2866,255.4336,260.5849,99.5005,0,U,51060,999,24907,.16662E-3,.6816E-4,0
BRO-5,2022-002CF,2026-07-08T04:41:46.540320,15.48583289,.0004649,97.2983,263.0662,230.4932,129.5908,0,U,51061,999,24950,.3754E-3,.19957E-3,0
LUDI TANCE 1-01A (L-SAR 01A),2022-007A,2026-07-08T03:44:33.310176,14.88413660,.0001614,97.8102,196.2779,90.2407,269.8995,0,U,51284,999,24159,.52311E-4,.431E-5,0
LUDI TANCE 1-01B (L-SAR 01B),2022-018A,2026-07-08T04:32:55.773024,14.88407763,.000162,97.8107,196.3088,90.8220,269.3183,0,U,51822,999,23683,.52588E-5,-.6E-7,0
2022-023F,2022-023F,2026-07-08T03:50:21.089184,15.17889847,.013248,63.4441,202.1844,341.6826,17.9538,0,U,51951,999,24089,.19143E-3,.4644E-4,0
MERIDIAN 10,2022-030A,2026-07-07T21:44:07.247616,2.00610630,.6789607,62.6802,138.5531,272.8449,17.6265,0,U,52145,999,3144,0,.204E-5,0
OMNI-L1,2022-033A,2026-07-07T18:15:36.772128,14.82828478,.0004683,97.8387,267.5390,201.7692,158.3324,0,U,52157,999,23050,.19149E-3,.1498E-4,0
ENMAP,2022-033C,2026-07-08T04:41:45.356640,14.74938122,.0001343,97.9786,271.1473,77.7565,282.3794,0,U,52159,999,22975,.63742E-4,.378E-5,0
ARCSAT-1,2022-033E,2026-07-07T22:13:42.240576,15.54137142,.0006352,97.2747,281.5143,117.1855,243.0047,0,U,52161,999,23892,.15824E-3,.10189E-3,0
GLOBAL-18,2022-034B,2026-07-06T21:35:03.701760,15.46973117,.00041105,52.9802,162.3799,1.2196,358.8819,0,U,52196,999,24001,.27699361E-3,.13792E-3,0
